{
  "type": "FeatureCollection",
  "features": [
    {
      "type": "Feature",
      "properties": {
        "norad_id": 36234,
        "name": "FENGYUN 1C DEB",
        "group": "fengyun-1c-debris",
        "lat": -43.10633108862466,
        "lon": 74.04269527622115,
        "alt_km": 928.6554564731659,
        "timestamp": "2025-12-22T16:55:17.751858+00:00",
        "meta_object_name": "FENGYUN 1C DEB",
        "meta_object_id": "1999-025DVK",
        "meta_epoch": "2025-12-08T10:31:28.850304",
        "meta_mean_motion": 13.45655828,
        "meta_eccentricity": 0.03174488,
        "meta_inclination": 99.0031,
        "meta_ra_of_asc_node": 52.6849,
        "meta_arg_of_pericenter": 39.1104,
        "meta_mean_anomaly": 323.2521,
        "meta_ephemeris_type": 0,
        "meta_classification_type": "U",
        "meta_norad_cat_id": 36234,
        "meta_element_set_no": 999,
        "meta_rev_at_epoch": 87889,
        "meta_bstar": 0.00050484626,
        "meta_mean_motion_dot": 3.7e-06,
        "meta_mean_motion_ddot": 0,
        "tle_line1": "1 36234U 99025DVK 25342.43852836  .00000370  00000+0  50485-3 0  9992",
        "tle_line2": "2 36234  99.0031  52.6849 0317448  39.1104 323.2521 13.45655828878896"
      },
      "geometry": {
        "type": "Point",
        "coordinates": [
          74.04269527622115,
          -43.10633108862466
        ]
      }
    },
    {
      "type": "Feature",
      "properties": {
        "norad_id": 36236,
        "name": "FENGYUN 1C DEB",
        "group": "fengyun-1c-debris",
        "lat": -54.74464384185316,
        "lon": 49.22658963356392,
        "alt_km": 865.8258053058489,
        "timestamp": "2025-12-22T16:55:17.751868+00:00",
        "meta_object_name": "FENGYUN 1C DEB",
        "meta_object_id": "1999-025DVM",
        "meta_epoch": "2025-12-10T20:13:13.163808",
        "meta_mean_motion": 13.81954009,
        "meta_eccentricity": 0.0149575,
        "meta_inclination": 98.85,
        "meta_ra_of_asc_node": 25.3566,
        "meta_arg_of_pericenter": 3.3066,
        "meta_mean_anomaly": 356.9043,
        "meta_ephemeris_type": 0,
        "meta_classification_type": "U",
        "meta_norad_cat_id": 36236,
        "meta_element_set_no": 999,
        "meta_rev_at_epoch": 59721,
        "meta_bstar": 0.00040381,
        "meta_mean_motion_dot": 4.31e-06,
        "meta_mean_motion_ddot": 0,
        "tle_line1": "1 36236U 99025DVM 25344.84251347  .00000431  00000+0  40381-3 0  9993",
        "tle_line2": "2 36236  98.8500  25.3566 0149575   3.3066 356.9043 13.81954009597212"
      },
      "geometry": {
        "type": "Point",
        "coordinates": [
          49.22658963356392,
          -54.74464384185316
        ]
      }
    },
    {
      "type": "Feature",
      "properties": {
        "norad_id": 36238,
        "name": "FENGYUN 1C DEB",
        "group": "fengyun-1c-debris",
        "lat": 80.02371361348145,
        "lon": -151.2754365116947,
        "alt_km": 857.1817977543915,
        "timestamp": "2025-12-22T16:55:17.751878+00:00",
        "meta_object_name": "FENGYUN 1C DEB",
        "meta_object_id": "1999-025DVP",
        "meta_epoch": "2025-12-19T15:21:49.148352",
        "meta_mean_motion": 14.12392478,
        "meta_eccentricity": 0.0020073,
        "meta_inclination": 98.6476,
        "meta_ra_of_asc_node": 325.8662,
        "meta_arg_of_pericenter": 261.1573,
        "meta_mean_anomaly": 98.7326,
        "meta_ephemeris_type": 0,
        "meta_classification_type": "U",
        "meta_norad_cat_id": 36238,
        "meta_element_set_no": 999,
        "meta_rev_at_epoch": 87115,
        "meta_bstar": 6.982e-05,
        "meta_mean_motion_dot": 8.7e-07,
        "meta_mean_motion_ddot": 0,
        "tle_line1": "1 36238U 99025DVP 25353.64015218  .00000087  00000+0  69820-4 0  9995",
        "tle_line2": "2 36238  98.6476 325.8662 0020073 261.1573  98.7326 14.12392478871151"
      },
      "geometry": {
        "type": "Point",
        "coordinates": [
          -151.2754365116947,
          80.02371361348145
        ]
      }
    },
    {
      "type": "Feature",
      "properties": {
        "norad_id": 36244,
        "name": "FENGYUN 1C DEB",
        "group": "fengyun-1c-debris",
        "lat": 81.05302194226421,
        "lon": 20.80208959057429,
        "alt_km": 835.5141102974367,
        "timestamp": "2025-12-22T16:55:17.751889+00:00",
        "meta_object_name": "FENGYUN 1C DEB",
        "meta_object_id": "1999-025DVV",
        "meta_epoch": "2025-12-21T18:35:36.590784",
        "meta_mean_motion": 14.25031478,
        "meta_eccentricity": 0.00495991,
        "meta_inclination": 98.9267,
        "meta_ra_of_asc_node": 106.5494,
        "meta_arg_of_pericenter": 258.3567,
        "meta_mean_anomaly": 101.2043,
        "meta_ephemeris_type": 0,
        "meta_classification_type": "U",
        "meta_norad_cat_id": 36244,
        "meta_element_set_no": 999,
        "meta_rev_at_epoch": 92107,
        "meta_bstar": 0.0013447202,
        "meta_mean_motion_dot": 3.145e-05,
        "meta_mean_motion_ddot": 0,
        "tle_line1": "1 36244U 99025DVV 25355.77472906  .00003145  00000+0  13447-2 0  9999",
        "tle_line2": "2 36244  98.9267 106.5494 0049599 258.3567 101.2043 14.25031478921078"
      },
      "geometry": {
        "type": "Point",
        "coordinates": [
          20.80208959057429,
          81.05302194226421
        ]
      }
    },
    {
      "type": "Feature",
      "properties": {
        "norad_id": 36247,
        "name": "FENGYUN 1C DEB",
        "group": "fengyun-1c-debris",
        "lat": -14.445809922393119,
        "lon": 11.487905751940925,
        "alt_km": 657.3763550456088,
        "timestamp": "2025-12-22T16:55:17.751900+00:00",
        "meta_object_name": "FENGYUN 1C DEB",
        "meta_object_id": "1999-025DVY",
        "meta_epoch": "2025-12-22T06:56:12.993792",
        "meta_mean_motion": 14.33612875,
        "meta_eccentricity": 0.01866612,
        "meta_inclination": 98.2674,
        "meta_ra_of_asc_node": 8.9436,
        "meta_arg_of_pericenter": 5.332,
        "meta_mean_anomaly": 354.9795,
        "meta_ephemeris_type": 0,
        "meta_classification_type": "U",
        "meta_norad_cat_id": 36247,
        "meta_element_set_no": 999,
        "meta_rev_at_epoch": 70399,
        "meta_bstar": 0.0004462309,
        "meta_mean_motion_dot": 1.455e-05,
        "meta_mean_motion_ddot": 0,
        "tle_line1": "1 36247U 99025DVY 25356.28903928  .00001455  00000+0  44623-3 0  9995",
        "tle_line2": "2 36247  98.2674   8.9436 0186661   5.3320 354.9795 14.33612875703991"
      },
      "geometry": {
        "type": "Point",
        "coordinates": [
          11.487905751940925,
          -14.445809922393119
        ]
      }
    },
    {
      "type": "Feature",
      "properties": {
        "norad_id": 36254,
        "name": "FENGYUN 1C DEB",
        "group": "fengyun-1c-debris",
        "lat": -23.50266370123709,
        "lon": 129.20522706606184,
        "alt_km": 540.5032218370479,
        "timestamp": "2025-12-22T16:55:17.751910+00:00",
        "meta_object_name": "FENGYUN 1C DEB",
        "meta_object_id": "1999-025DWF",
        "meta_epoch": "2025-12-05T14:18:33.769152",
        "meta_mean_motion": 15.16034114,
        "meta_eccentricity": 0.00460205,
        "meta_inclination": 99.5281,
        "meta_ra_of_asc_node": 291.8918,
        "meta_arg_of_pericenter": 66.714,
        "meta_mean_anomaly": 293.892,
        "meta_ephemeris_type": 0,
        "meta_classification_type": "U",
        "meta_norad_cat_id": 36254,
        "meta_element_set_no": 999,
        "meta_rev_at_epoch": 60668,
        "meta_bstar": 0.005730812,
        "meta_mean_motion_dot": 0.00114745,
        "meta_mean_motion_ddot": 0,
        "tle_line1": "1 36254U 99025DWF 25339.59622418  .00114745  00000+0  57308-2 0  9990",
        "tle_line2": "2 36254  99.5281 291.8918 0046020  66.7140 293.8920 15.16034114606685"
      },
      "geometry": {
        "type": "Point",
        "coordinates": [
          129.20522706606184,
          -23.50266370123709
        ]
      }
    },
    {
      "type": "Feature",
      "properties": {
        "norad_id": 36255,
        "name": "FENGYUN 1C DEB",
        "group": "fengyun-1c-debris",
        "lat": -49.2002356368093,
        "lon": 87.192928006415,
        "alt_km": 780.7326348769966,
        "timestamp": "2025-12-22T16:55:17.751921+00:00",
        "meta_object_name": "FENGYUN 1C DEB",
        "meta_object_id": "1999-025DWG",
        "meta_epoch": "2025-12-19T13:28:01.680384",
        "meta_mean_motion": 14.36594643,
        "meta_eccentricity": 0.0064178,
        "meta_inclination": 99.4355,
        "meta_ra_of_asc_node": 274.859,
        "meta_arg_of_pericenter": 143.5444,
        "meta_mean_anomaly": 35.1872,
        "meta_ephemeris_type": 0,
        "meta_classification_type": "U",
        "meta_norad_cat_id": 36255,
        "meta_element_set_no": 999,
        "meta_rev_at_epoch": 64108,
        "meta_bstar": 0.00048244,
        "meta_mean_motion_dot": 1.401e-05,
        "meta_mean_motion_ddot": 0,
        "tle_line1": "1 36255U 99025DWG 25353.56113056  .00001401  00000+0  48244-3 0  9991",
        "tle_line2": "2 36255  99.4355 274.8590 0064178 143.5444  35.1872 14.36594643641084"
      },
      "geometry": {
        "type": "Point",
        "coordinates": [
          87.192928006415,
          -49.2002356368093
        ]
      }
    }
  ]
}